HYPSO-1                 
1 51053U 22002BX  26145.18046524  .00060565  00000+0  54470-3 0  9992
2 51053  97.2841 225.2159 0001020  75.4868 284.6506 15.68053391243308
